#aV2006  1 31  0  0   .00000000      96 DD+AD WGS84 FIT  NGA
## 1360 172800.00000000   900.00000000 53766  .0000000000000
+   29     1  2  3  4  5  6  7  8  9 10 11 13 14 15 16 17 18
+         19 20 21 22 23 24 25 26 27 28 29 30  0  0  0  0  0
+          0  0  0  0  0  0  0  0  0  0  0  0  0  0  0  0  0
+          0  0  0  0  0  0  0  0  0  0  0  0  0  0  0  0  0
+          0  0  0  0  0  0  0  0  0  0  0  0  0  0  0  0  0
++         0  0  0  0  0  0  0  0  0  0  0  0  0  0  0  0  0
++         0  0  0  0  0  0  0  0  0  0  0  0  0  0  0  0  0
++         0  0  0  0  0  0  0  0  0  0  0  0  0  0  0  0  0
++         0  0  0  0  0  0  0  0  0  0  0  0  0  0  0  0  0
++         0  0  0  0  0  0  0  0  0  0  0  0  0  0  0  0  0
%c cc cc ccc ccc cccc cccc cccc cccc ccccc ccccc ccccc ccccc
%c cc cc ccc ccc cccc cccc cccc cccc ccccc ccccc ccccc ccccc
%f  0.0000000  0.000000000  0.00000000000  0.000000000000000
%f  0.0000000  0.000000000  0.00000000000  0.000000000000000
%i    0    0    0    0      0      0      0      0         0
%i    0    0    0    0      0      0      0      0         0
/*      NGA, ST. LOUIS,MO.                                  
/*   EPHEMERIS COMPUTED FROM  3 DAYS OF DATA                
/* CCCCCCCCCCCCCCCCCCCCCCCCCCCCCCCCCCCCCCCCCCCCCCCCCCCCCCCCC
/* CCCCCCCCCCCCCCCCCCCCCCCCCCCCCCCCCCCCCCCCCCCCCCCCCCCCCCCCC
*  2006  1 31 21 30   .00000000                                                 
P  1 -15599.596340  19938.623251  -7763.148666     34.289370                    
V  1   2740.273540  -9931.083468 -30278.366652       .019480                    
P  2  17842.961311 -12451.262549  14840.665797    -20.190841                    
V  2  19569.081657    468.688498 -22884.309300       .013008                    
P  3 -11170.422956  23597.617955   3749.230360     71.173633                    
V  3  -2252.647440  -6096.018206  30664.372215       .031247                    
P  4  25297.374003  -6321.519906   5937.074674    135.538735                    
V  4   7712.836490   2096.737728 -30108.546697       .115440                    
P  5 -12388.716381 -22567.867213  -7067.789424    492.720942                    
V  5   8061.356049   4580.963689 -29401.723803       .095663                    
P  6 -11252.368616 -12706.114573  20602.197212    280.811497                    
V  6  10830.221694 -23503.686213  -8741.870863       .378225                    
P  7  14424.616415 -20493.728843  -8345.025943    485.168140                    
V  7   -714.899922  11653.818875 -28745.766844       .089366                    
P  8  26701.646661   -330.674347   1876.718302    -55.193614                    
V  8  -2400.546760   2283.365936  31613.891103      -.010988                    
P  9  -4425.818777 -14985.123666 -22028.701024      5.909567                    
V  9  26431.760999  -3760.556717  -2531.486503       .017135                    
P 10   3446.596809 -17855.028798  19159.039305     77.958703                    
V 10  15044.163187  19477.056061  15682.454144       .006680                    
P 11   6193.537131  15487.951377 -20743.407842    303.481942                    
V 11 -25648.307135   6580.782287  -2506.198205       .028354                    
P 13  10623.567052  10825.112840  21736.486853     38.496360                    
V 13 -12227.456568  24842.760732  -6317.170465       .023651                    
P 14 -17217.035149   8093.956433 -18443.580325    -20.158552                    
V 14   8788.517938 -21850.480678 -17768.848954       .005835                    
P 15 -26605.451939  -1109.172722   2527.611281    558.681519                    
V 15   3317.188793  -2663.575646  31239.370381       .059855                    
P 16  -9651.169266  12317.152735  21532.183127     24.337863                    
V 16 -16112.192813 -21865.416660   5392.065798       .017480                    
P 17  17406.327355  -6130.480434 -19095.650467     40.810751                    
V 17  -8643.113192  22677.065767 -15255.850191       .086336                    
P 18 -18733.431474 -16436.165881  -9498.000756   -218.139323                    
V 18  -4654.175652 -11426.044456  28378.504357      -.021929                    
P 19  -4894.023474  24156.849632  -9753.440822    -22.582963                    
V 19  -8161.863360   9888.458618  28325.547813       .008184                    
P 20  11754.735093  23095.776132  -5968.998084    -33.836637                    
V 20  -6618.507178  -4407.966498 -30484.216989       .009476                    
P 21 -23303.794818  -6826.391345  11377.205587      1.353807                    
V 21  14063.132371  -3301.625923  26414.707777       .035080                    
P 22 -18215.806196  -3853.950323 -18781.294472     65.426739                    
V 22 -11834.017820 -21156.255035  15688.682570       .024790                    
P 23   2838.877758  20807.437905  16079.940935    152.248841                    
V 23 -10153.993638  18057.593354 -21602.958344      -.015318                    
P 24  25392.408815   3706.852496  -7087.298446     81.865462                    
V 24  -9124.420406   2950.848616 -29885.823302       .030259                    
P 25 -22668.744697  10951.925207   9030.347408   -203.279753                    
V 25 -11194.975891   -514.335467 -28661.654156       .937725                    
P 26   7419.554451 -24551.060177  -5917.802868    -27.593685                    
V 26   5146.009375  -5457.802634  31571.847543      -.082271                    
P 27  23198.684862   5337.911612  12744.719830     33.893509                    
V 27 -14606.641503   4369.630232  25619.898804       .016723                    
P 28  19260.755464   7232.682889 -16721.743677     34.176460                    
V 28  10951.858808  18701.301457  20039.119646      -.005604                    
P 29  10167.239644 -24371.689196   -653.259269    518.380866                    
V 29   2515.514615   -142.657218  32447.420335       .129114                    
P 30 -17533.746439 -19859.682380   2348.620046     21.407187                    
V 30    531.932285  -4596.861361 -31131.610714       .034052                    
EOF
